*******************************************************************************
JPL/HORIZONS                  ATLAS (C/2025 N1)            2025-Sep-16 16:30:53
Rec #:90004914 (+COV) Soln.date: 2025-Sep-08_18:29:13     # obs: 603 (104 days)
 
IAU76/J2000 helio. ecliptic osc. elements (au, days, deg., period=Julian yrs):
 
  EPOCH=  2460878.5 ! 2025-Jul-22.0000000 (TDB)    RMSW= n.a.
   EC= 6.139587836355706   QR= 1.356419039495192   TP= 2460977.9814392594
   OM= 322.1568699043938   W= 128.0099421020839    IN= 175.1131015287974
   A= -.26391591751781     MA= -3.18224798181177   ADIST= 9.999999E99
   PER= 9.999999E99        N= 7.269519353          ANGMOM= .053532183
   DAN= -3.48262           DDN= 2.02568            L= 194.0456433
   B= 3.8486331            MOID= .36415401         TP= 2025-Oct-29.4814392594
 
Comet physical (GM= km^3/s^2; RAD= km):
   GM= n.a.                RAD= n.a.
   M1=  12.3     M2=  n.a.     k1=  4.5    k2= n.a.     PHCOF= n.a.
COMET comments 
1: soln ref.= JPL#26, data arc: 2025-05-15 to 2025-08-27
2: k1=4.5;
*******************************************************************************


*******************************************************************************
Ephemeris / WWW_USER Tue Sep 16 16:30:53 2025 Pasadena, USA      / Horizons    
*******************************************************************************
Target body name: ATLAS (C/2025 N1)               {source: JPL#26}
Center body name: Earth (399)                     {source: DE441}
Center-site name: Cerro Paranal
*******************************************************************************
Start time      : A.D. 2025-Sep-10 22:00:00.0000 UT      
Stop  time      : A.D. 2025-Sep-11 04:00:00.0000 UT      
Step-size       : 1 minutes
*******************************************************************************
Target pole/equ : undefined
Target radii    : undefined                                                    
Center geodetic : 289.5957, -24.6272128, 2.63514  {E-lon(deg),Lat(deg),Alt(km)}
Center cylindric: 289.5957,5803.73915,-2642.69127 {E-lon(deg),Dxy(km),Dz(km)}
Center pole/equ : ITRF93                          {East-longitude positive}
Center radii    : 6378.137, 6378.137, 6356.752 km {Equator_a, b, pole_c}       
Target primary  : Sun
Vis. interferer : MOON (R_eq= 1737.400) km        {source: DE441}
Rel. light bend : Sun                             {source: DE441}
Rel. lght bnd GM: 1.3271E+11 km^3/s^2                                          
Small-body perts: Yes                             {source: SB441-N16}
Atmos refraction: NO (AIRLESS)
RA format       : HMS
Time format     : BOTH
Calendar mode   : Mixed Julian/Gregorian
RTS-only print  : NO       
EOP file        : eop.250916.p251212                                           
EOP coverage    : DATA-BASED 1962-JAN-20 TO 2025-SEP-16. PREDICTS-> 2025-DEC-11
Units conversion: 1 au= 149597870.700 km, c= 299792.458 km/s, 1 day= 86400.0 s 
Table cut-offs 1: Elevation ( 20.0deg=YES),Airmass (< 2.600=YES),Daylight (NO )
Table cut-offs 2: Solar elongation (  0.0,180.0=NO ),Local Hour Angle( 0.0=NO )
Table cut-offs 3: RA/DEC angular rate (     0.0=NO )                           
Table format    : Comma Separated Values (spreadsheet)
*******************************************************************************
Initial IAU76/J2000 heliocentric ecliptic osculating elements (au, days, deg.):
  EPOCH=  2460878.5 ! 2025-Jul-22.0000000 (TDB)    RMSW= n.a.                  
   EC= 6.139587836355706   QR= 1.356419039495192   TP= 2460977.9814392594      
   OM= 322.1568699043938   W= 128.0099421020839    IN= 175.1131015287974       
  Equivalent ICRF heliocentric cartesian coordinates (au, au/d):
   X=-1.616994368572366E-02  Y=-3.597814381333365E+00  Z=-1.278571631651561E+00
  VX=-1.386152884723053E-02 VY= 3.077166736535444E-02 VZ= 1.171310239604216E-02
Comet physical (GM= km^3/s^2; RAD= km):                                        
   GM= n.a.                RAD= n.a.                                           
   M1=  12.3     M2=  n.a.     k1=  4.5    k2= n.a.     PHCOF= n.a.            
************************************************************************************************************************************************************************************
 Date__(UT)__HR:MN:SS, Date_________JDUT, , , R.A._____(ICRF), DEC______(ICRF),  dRA*cosD, d(DEC)/dt,    T-mag,  N-mag,                r,       rdot,             delta,     deldot,
************************************************************************************************************************************************************************************
$$SOE
 2025-Sep-10 22:00:00, 2460929.416666667,*, , 15 06 42.143181, -13 18 52.49262,  -81.5070,  17.69905,   15.896,   n.a.,   2.224791793010,-49.2253709,  2.55062502564905, -3.5216211,
 2025-Sep-10 22:01:00, 2460929.417361111,*, , 15 06 42.050153, -13 18 52.19513,  -81.5052,  17.69984,   15.896,   n.a.,   2.224772049750,-49.2251298,  2.55062361342027, -3.5199125,
 2025-Sep-10 22:02:00, 2460929.418055556,*, , 15 06 41.957128, -13 18 51.89763,  -81.5033,  17.70064,   15.896,   n.a.,   2.224752306586,-49.2248888,  2.55062220187621, -3.5182070,
 2025-Sep-10 22:03:00, 2460929.418750000,*, , 15 06 41.864104, -13 18 51.60012,  -81.5014,  17.70143,   15.896,   n.a.,   2.224732563520,-49.2246478,  2.55062079101563, -3.5165046,
 2025-Sep-10 22:04:00, 2460929.419444445,*, , 15 06 41.771083, -13 18 51.30260,  -81.4995,  17.70221,   15.896,   n.a.,   2.224712820550,-49.2244067,  2.55061938083727, -3.5148054,
 2025-Sep-10 22:05:00, 2460929.420138889,*, , 15 06 41.678064, -13 18 51.00506,  -81.4976,  17.70300,   15.896,   n.a.,   2.224693077677,-49.2241656,  2.55061797133984, -3.5131094,
 2025-Sep-10 22:06:00, 2460929.420833333,*, , 15 06 41.585047, -13 18 50.70751,  -81.4957,  17.70379,   15.896,   n.a.,   2.224673334901,-49.2239246,  2.55061656252207, -3.5114166,
 2025-Sep-10 22:07:00, 2460929.421527778,*, , 15 06 41.492033, -13 18 50.40995,  -81.4937,  17.70457,   15.896,   n.a.,   2.224653592221,-49.2236835,  2.55061515438264, -3.5097271,
 2025-Sep-10 22:08:00, 2460929.422222222,*, , 15 06 41.399021, -13 18 50.11237,  -81.4918,  17.70535,   15.896,   n.a.,   2.224633849639,-49.2234424,  2.55061374692025, -3.5080409,
 2025-Sep-10 22:09:00, 2460929.422916667,*, , 15 06 41.306011, -13 18 49.81478,  -81.4898,  17.70613,   15.896,   n.a.,   2.224614107153,-49.2232013,  2.55061234013357, -3.5063579,
 2025-Sep-10 22:10:00, 2460929.423611111,*, , 15 06 41.213003, -13 18 49.51718,  -81.4878,  17.70691,   15.896,   n.a.,   2.224594364764,-49.2229602,  2.55061093402125, -3.5046784,
 2025-Sep-10 22:11:00, 2460929.424305555,*, , 15 06 41.119998, -13 18 49.21956,  -81.4858,  17.70769,   15.896,   n.a.,   2.224574622472,-49.2227191,  2.55060952858195, -3.5030022,
 2025-Sep-10 22:12:00, 2460929.425000000,*, , 15 06 41.026995, -13 18 48.92193,  -81.4838,  17.70847,   15.896,   n.a.,   2.224554880276,-49.2224780,  2.55060812381430, -3.5013295,
 2025-Sep-10 22:13:00, 2460929.425694444,*, , 15 06 40.933994, -13 18 48.62429,  -81.4817,  17.70924,   15.896,   n.a.,   2.224535138178,-49.2222369,  2.55060671971692, -3.4996602,
 2025-Sep-10 22:14:00, 2460929.426388889,*, , 15 06 40.840996, -13 18 48.32664,  -81.4797,  17.71001,   15.896,   n.a.,   2.224515396176,-49.2219958,  2.55060531628843, -3.4979944,
 2025-Sep-10 22:15:00, 2460929.427083333,*, , 15 06 40.748000, -13 18 48.02897,  -81.4776,  17.71079,   15.896,   n.a.,   2.224495654271,-49.2217547,  2.55060391352741, -3.4963321,
 2025-Sep-10 22:16:00, 2460929.427777778,*, , 15 06 40.655006, -13 18 47.73129,  -81.4756,  17.71156,   15.896,   n.a.,   2.224475912463,-49.2215135,  2.55060251143246, -3.4946733,
 2025-Sep-10 22:17:00, 2460929.428472222,*, , 15 06 40.562015, -13 18 47.43360,  -81.4735,  17.71232,   15.896,   n.a.,   2.224456170752,-49.2212724,  2.55060111000215, -3.4930181,
 2025-Sep-10 22:18:00, 2460929.429166667,*, , 15 06 40.469026, -13 18 47.13590,  -81.4714,  17.71309,   15.896,   n.a.,   2.224436429137,-49.2210312,  2.55059970923503, -3.4913665,
 2025-Sep-10 22:19:00, 2460929.429861111,*, , 15 06 40.376040, -13 18 46.83818,  -81.4693,  17.71385,   15.896,   n.a.,   2.224416687619,-49.2207901,  2.55059830912966, -3.4897186,
 2025-Sep-10 22:20:00, 2460929.430555556,*, , 15 06 40.283056, -13 18 46.54045,  -81.4671,  17.71462,   15.896,   n.a.,   2.224396946199,-49.2205489,  2.55059690968457, -3.4880743,
 2025-Sep-10 22:21:00, 2460929.431250000,*, , 15 06 40.190075, -13 18 46.24271,  -81.4650,  17.71538,   15.896,   n.a.,   2.224377204875,-49.2203077,  2.55059551089828, -3.4864337,
 2025-Sep-10 22:22:00, 2460929.431944444,*, , 15 06 40.097096, -13 18 45.94495,  -81.4628,  17.71614,   15.896,   n.a.,   2.224357463648,-49.2200666,  2.55059411276930, -3.4847969,
 2025-Sep-10 22:23:00, 2460929.432638889,*, , 15 06 40.004120, -13 18 45.64718,  -81.4606,  17.71690,   15.896,   n.a.,   2.224337722517,-49.2198254,  2.55059271529614, -3.4831638,
 2025-Sep-10 22:24:00, 2460929.433333333,*, , 15 06 39.911146, -13 18 45.34940,  -81.4585,  17.71765,   15.896,   n.a.,   2.224317981484,-49.2195842,  2.55059131847728, -3.4815345,
 2025-Sep-10 22:25:00, 2460929.434027778,*, , 15 06 39.818175, -13 18 45.05161,  -81.4563,  17.71841,   15.896,   n.a.,   2.224298240547,-49.2193430,  2.55058992231119, -3.4799090,
 2025-Sep-10 22:26:00, 2460929.434722222,*, , 15 06 39.725206, -13 18 44.75380,  -81.4540,  17.71916,   15.896,   n.a.,   2.224278499707,-49.2191018,  2.55058852679634, -3.4782874,
 2025-Sep-10 22:27:00, 2460929.435416667,*, , 15 06 39.632240, -13 18 44.45599,  -81.4518,  17.71991,   15.896,   n.a.,   2.224258758965,-49.2188605,  2.55058713193116, -3.4766696,
 2025-Sep-10 22:28:00, 2460929.436111111,*, , 15 06 39.539276, -13 18 44.15816,  -81.4496,  17.72066,   15.896,   n.a.,   2.224239018319,-49.2186193,  2.55058573771411, -3.4750558,
